{
  "norad_id": 68905,
  "name": "STARLINK-37494",
  "history": [
    {
      "epoch": "2026-05-04T18:00:02.000160Z",
      "apogee_km": 278.9904617149423,
      "perigee_km": 277.06549880265084,
      "latitude_deg": -55.46028779849603,
      "longitude_deg": -3.6111675834307353,
      "height_km": 300.3773789517028,
      "semi_major_axis_km": 6656.164980258796,
      "eccentricity": 0.0001446,
      "inclination_deg": 97.2868,
      "raan_deg": 319.6771,
      "arg_perigee_deg": 94.1162,
      "mean_anomaly_deg": 141.7642,
      "mean_motion_rev_day": 15.98698786
    }
  ]
}