{"generatedAt":"2026-05-05T08:19:47.084492Z","satellites":[{"name":"STARLINK-37494","tle1":"1 68905U 26097L   26124.75002315 -.02203138  14123-2 -47304-2 0  9994","tle2":"2 68905  97.2868 319.6771 0001446  94.1162 141.7642 15.98698786  1948"}]}